IRIDIUM 112             
1 41925U 17003J   24238.63497808  .00000774  00000+0  26945-3 0  9992
2 41925  86.4013   4.3373 0002559  92.2601 267.8887 14.34220532398592
IRIDIUM 111             
1 41926U 17003K   24238.62229039  .00000036  00000+0  57737-5 0  9997
2 41926  86.4014   4.3988 0002329  84.3914 275.7547 14.34213980398578
IRIDIUM 113             
1 42803U 17039A   24238.39295430 -.00000002  00000+0 -78890-5 0  9991
2 42803  86.3940 238.2504 0002319  85.0704 275.0756 14.34217359376470
IRIDIUM 123             
1 42804U 17039B   24238.36467294  .00000557  00000+0  19177-3 0  9992
2 42804  86.3918 269.7690 0002194  87.8664 272.2783 14.34220470375237
IRIDIUM 120             
1 42805U 17039C   24238.38661218  .00000299  00000+0  99579-4 0  9995
2 42805  86.3926 238.1211 0002236  89.6492 270.4960 14.34217843376465
IRIDIUM 115             
1 42806U 17039D   24238.46497410  .00000392  00000+0  11049-3 0  9995
2 42806  86.4464 238.1230 0002550  83.5654 276.5837 14.43273062378969
IRIDIUM 118             
1 42807U 17039E   24238.60568316  .00000419  00000+0  14253-3 0  9996
2 42807  86.3917 269.6691 0002231  96.3438 263.8012 14.34221230375264
IRIDIUM 117             
1 42808U 17039F   24238.34563564  .00000466  00000+0  15922-3 0  9994
2 42808  86.3917 269.7418 0002333  88.3602 271.7861 14.34219490375254
